BEESAT-2
1 39136U 13015G   15077.13635892  .00014104  00000-0  88178-3 0  9994
2 39136 064.8763 350.2131 0034467 263.4914 096.2283 15.09167734104914
LO-75
1 39382U 13064C   14295.69194059  .07301741  00000-0  36367-2 0  9993
2 39382 040.4713 030.2705 0002289 341.7175 018.4586 16.19795749470823
ZACUBE-1
1 39417U 13066B   15077.16916461  .00003194  00000-0  42163-3 0  9990
2 39417 097.7403 143.0762 0062225 073.6143 287.1898 14.79359811 71177
TRITON-1
1 39427U 13066M   15077.80604489  .00002907  00000-0  48221-3 0  9998
2 39427 097.7267 133.8366 0117821 095.6892 265.7762 14.66376970 70623
DELFIN3XT
1 39428U 13066N   15077.18163266  .00005073  00000-0  85036-3 0  9995
2 39428 097.7269 131.7322 0126816 101.9658 259.5795 14.64916757 70426
GOMX-1
1 39430U 13066Q   15077.61854756  .00002473  00000-0  46680-3 0  9990
2 39430 097.7200 127.2289 0155235 114.8275 246.9165 14.57780617 70181
MO-76
1 39436U 13066W   15077.14691269  .00055159  00000-0  41738-2 0  9999
2 39436 097.7540 153.0479 0023471 053.4214 306.9166 15.01873471 71808
LO-74
1 39440U 13066AA  15077.12608723  .00003073  00000-0  44695-3 0  9999
2 39440 097.7354 139.1363 0083984 082.3674 278.7064 14.74206080 70929
PUCPSAT-1
1 39442U 13066AC  15077.19046017  .00005529  00000-0  60125-3 0  9994
2 39442 097.7477 149.2949 0034615 065.0117 295.4689 14.88018502 70335
SHINAISAT
1 39572U 14009A   14328.13084988  .28848087  76253-5  66603-3 0  9996
2 39572 064.9728 197.0096 0013534 259.7861 100.1802 16.45181032 42403
TEIKYOSAT
1 39576U 14009E   14297.85867254  .09345816  76764-5  25176-3 0  9997
2 39576 064.9818 300.5833 0008491 317.3597 044.3862 16.45008906 37698
CO-77
1 39577U 14009F   14244.78324653  .10543803  76292-5  32273-3 0  9993
2 39577 064.9920 123.7668 0014904 269.7208 091.1897 16.43552757 29380
SPROUT
1 39770U 14029E   15077.54226803  .00001124  00000-0  14287-3 0  9995
2 39770 097.8675 175.6358 0010892 133.3996 226.8151 14.83530405 44195
POPSAT-HIP1
1 40028U 14033U   15077.80489763  .00004967  00000-0  56551-3 0  9991
2 40028 097.9639 337.9794 0015770 115.8355 244.4539 14.86561164 40354
EO-80
1 40032U 14033Y   15077.78259950  .00003986  00000-0  45848-3 0  9993
2 40032 097.9580 337.7215 0013634 112.2540 248.0222 14.86282195 40357
VELOX-1
1 40057U 14034E   15077.74562455  .00003897  00000-0  58137-3 0  9990
2 40057 098.2218 154.3696 0012304 163.0289 197.1354 14.75374591 38547
DAURIA DX 1
1 40071U 14037C   15077.75363625  .00002329  00000-0  31384-3 0  9992
2 40071 098.3657 145.4234 0009572 162.8755 197.2767 14.80175396 37410
