Satellite: BEESAT-2
Catalog number: 39136
Epoch time:      15077.13635892
Element set:     999
Inclination:      064.8763 deg
RA of node:       350.2131 deg
Eccentricity:    0.0034467
Arg of perigee:   263.4914 deg
Mean anomaly:     096.2283 deg
Mean motion:   15.09167734 rev/day
Decay rate:     1.4104e-04 rev/day^2
Epoch rev:           10491
Checksum:              316

Satellite: LO-75
Catalog number: 39382
Epoch time:      14295.69194059
Element set:     999
Inclination:      040.4713 deg
RA of node:       030.2705 deg
Eccentricity:    0.0002289
Arg of perigee:   341.7175 deg
Mean anomaly:     018.4586 deg
Mean motion:   16.19795749 rev/day
Decay rate:   7.301741e-02 rev/day^2
Epoch rev:           47082
Checksum:              353

Satellite: ZACUBE-1
Catalog number: 39417
Epoch time:      15077.16916461
Element set:     999
Inclination:      097.7403 deg
RA of node:       143.0762 deg
Eccentricity:    0.0062225
Arg of perigee:   073.6143 deg
Mean anomaly:     287.1898 deg
Mean motion:   14.79359811 rev/day
Decay rate:      3.194e-05 rev/day^2
Epoch rev:            7117
Checksum:              333

Satellite: TRITON-1
Catalog number: 39427
Epoch time:      15077.80604489
Element set:     999
Inclination:      097.7267 deg
RA of node:       133.8366 deg
Eccentricity:    0.0117821
Arg of perigee:   095.6892 deg
Mean anomaly:     265.7762 deg
Mean motion:   14.66376970 rev/day
Decay rate:      2.907e-05 rev/day^2
Epoch rev:            7062
Checksum:              365

Satellite: DELFIN3XT
Catalog number: 39428
Epoch time:      15077.18163266
Element set:     999
Inclination:      097.7269 deg
RA of node:       131.7322 deg
Eccentricity:    0.0126816
Arg of perigee:   101.9658 deg
Mean anomaly:     259.5795 deg
Mean motion:   14.64916757 rev/day
Decay rate:      5.073e-05 rev/day^2
Epoch rev:            7042
Checksum:              350

Satellite: GOMX-1
Catalog number: 39430
Epoch time:      15077.61854756
Element set:     999
Inclination:      097.7200 deg
RA of node:       127.2289 deg
Eccentricity:    0.0155235
Arg of perigee:   114.8275 deg
Mean anomaly:     246.9165 deg
Mean motion:   14.57780617 rev/day
Decay rate:      2.473e-05 rev/day^2
Epoch rev:            7018
Checksum:              334

Satellite: MO-76
Catalog number: 39436
Epoch time:      15077.14691269
Element set:     999
Inclination:      097.7540 deg
RA of node:       153.0479 deg
Eccentricity:    0.0023471
Arg of perigee:   053.4214 deg
Mean anomaly:     306.9166 deg
Mean motion:   15.01873471 rev/day
Decay rate:     5.5159e-04 rev/day^2
Epoch rev:            7180
Checksum:              337

Satellite: LO-74
Catalog number: 39440
Epoch time:      15077.12608723
Element set:     999
Inclination:      097.7354 deg
RA of node:       139.1363 deg
Eccentricity:    0.0083984
Arg of perigee:   082.3674 deg
Mean anomaly:     278.7064 deg
Mean motion:   14.74206080 rev/day
Decay rate:      3.073e-05 rev/day^2
Epoch rev:            7092
Checksum:              336

Satellite: PUCPSAT-1
Catalog number: 39442
Epoch time:      15077.19046017
Element set:     999
Inclination:      097.7477 deg
RA of node:       149.2949 deg
Eccentricity:    0.0034615
Arg of perigee:   065.0117 deg
Mean anomaly:     295.4689 deg
Mean motion:   14.88018502 rev/day
Decay rate:      5.529e-05 rev/day^2
Epoch rev:            7033
Checksum:              339

Satellite: SHINAISAT
Catalog number: 39572
Epoch time:      14328.13084988
Element set:     999
Inclination:      064.9728 deg
RA of node:       197.0096 deg
Eccentricity:    0.0013534
Arg of perigee:   259.7861 deg
Mean anomaly:     100.1802 deg
Mean motion:   16.45181032 rev/day
Decay rate:  2.8848087e-01 rev/day^2
Epoch rev:            4240
Checksum:              336

Satellite: TEIKYOSAT
Catalog number: 39576
Epoch time:      14297.85867254
Element set:     999
Inclination:      064.9818 deg
RA of node:       300.5833 deg
Eccentricity:    0.0008491
Arg of perigee:   317.3597 deg
Mean anomaly:     044.3862 deg
Mean motion:   16.45008906 rev/day
Decay rate:   9.345816e-02 rev/day^2
Epoch rev:            3769
Checksum:              372

Satellite: CO-77
Catalog number: 39577
Epoch time:      14244.78324653
Element set:     999
Inclination:      064.9920 deg
RA of node:       123.7668 deg
Eccentricity:    0.0014904
Arg of perigee:   269.7208 deg
Mean anomaly:     091.1897 deg
Mean motion:   16.43552757 rev/day
Decay rate:  1.0543803e-01 rev/day^2
Epoch rev:            2938
Checksum:              371

Satellite: SPROUT
Catalog number: 39770
Epoch time:      15077.54226803
Element set:     999
Inclination:      097.8675 deg
RA of node:       175.6358 deg
Eccentricity:    0.0010892
Arg of perigee:   133.3996 deg
Mean anomaly:     226.8151 deg
Mean motion:   14.83530405 rev/day
Decay rate:      1.124e-05 rev/day^2
Epoch rev:            4419
Checksum:              326

Satellite: POPSAT-HIP1
Catalog number: 40028
Epoch time:      15077.80489763
Element set:     999
Inclination:      097.9639 deg
RA of node:       337.9794 deg
Eccentricity:    0.0015770
Arg of perigee:   115.8355 deg
Mean anomaly:     244.4539 deg
Mean motion:   14.86561164 rev/day
Decay rate:      4.967e-05 rev/day^2
Epoch rev:            4035
Checksum:              360

Satellite: EO-80
Catalog number: 40032
Epoch time:      15077.78259950
Element set:     999
Inclination:      097.9580 deg
RA of node:       337.7215 deg
Eccentricity:    0.0013634
Arg of perigee:   112.2540 deg
Mean anomaly:     248.0222 deg
Mean motion:   14.86282195 rev/day
Decay rate:      3.986e-05 rev/day^2
Epoch rev:            4035
Checksum:              320

Satellite: VELOX-1
Catalog number: 40057
Epoch time:      15077.74562455
Element set:     999
Inclination:      098.2218 deg
RA of node:       154.3696 deg
Eccentricity:    0.0012304
Arg of perigee:   163.0289 deg
Mean anomaly:     197.1354 deg
Mean motion:   14.75374591 rev/day
Decay rate:      3.897e-05 rev/day^2
Epoch rev:            3854
Checksum:              337

Satellite: DAURIA DX 1
Catalog number: 40071
Epoch time:      15077.75363625
Element set:     999
Inclination:      098.3657 deg
RA of node:       145.4234 deg
Eccentricity:    0.0009572
Arg of perigee:   162.8755 deg
Mean anomaly:     197.2767 deg
Mean motion:   14.80175396 rev/day
Decay rate:      2.329e-05 rev/day^2
Epoch rev:            3741
Checksum:              337

